[{"OBJECT_NAME":"BISONSAT","OBJECT_ID":"2015-058L","EPOCH":"2026-03-09T11:49:35.353056","MEAN_MOTION":15.13791398,"ECCENTRICITY":0.00792382,"INCLINATION":64.7598,"RA_OF_ASC_NODE":135.3937,"ARG_OF_PERICENTER":90.6713,"MEAN_ANOMALY":270.349,"EPHEMERIS_TYPE":0,"CLASSIFICATION_TYPE":"U","NORAD_CAT_ID":40974,"ELEMENT_SET_NO":999,"REV_AT_EPOCH":10051,"BSTAR":0.0006711096,"MEAN_MOTION_DOT":0.00012971,"MEAN_MOTION_DDOT":0},{"OBJECT_NAME":"STARLINK-34958","OBJECT_ID":"2025-179C","EPOCH":"2026-03-09T16:22:17.904288","MEAN_MOTION":15.05622171,"ECCENTRICITY":0.00016486,"INCLINATION":97.6029,"RA_OF_ASC_NODE":112.9018,"ARG_OF_PERICENTER":109.5641,"MEAN_ANOMALY":250.5764,"EPHEMERIS_TYPE":0,"CLASSIFICATION_TYPE":"U","NORAD_CAT_ID":65237,"ELEMENT_SET_NO":999,"REV_AT_EPOCH":3196,"BSTAR":-0.0002252672,"MEAN_MOTION_DOT":-3.307e-5,"MEAN_MOTION_DDOT":0}]
